NORAD_CAT_ID,OBJECT_NAME,OBJECT_TYPE,EPOCH,MEAN_MOTION,ECCENTRICITY,INCLINATION,RA_OF_ASC_NODE,ARG_OF_PERICENTER,MEAN_ANOMALY,BSTAR,MEAN_MOTION_DOT,MEAN_MOTION_DDOT,TLE_LINE0,TLE_LINE1,TLE_LINE2,SEMIMAJOR_AXIS,PERIOD,APOGEE,PERIGEE,DECAYED
51980.0,STARLINK-3649,PAYLOAD,2024-02-05 18:43:06,15.08843595,0.0001166,53.216,223.9572,91.8896,268.223,1.7685e-05,-6e-08,0.0,0 STARLINK-3649,1 51980U 22025AA  24036.77994069 -.00000006  00000-0  17685-4 0  9998,2 51980  53.2160 223.9572 0001166  91.8896 268.2230 15.08843595105880,6917.869,95.437,540.541,538.928,0.0
51980.0,STARLINK-3649,PAYLOAD,2024-02-06 12:12:21,15.08844139,0.0001177,53.216,220.6858,92.4221,267.6906,2.3209e-05,8.2e-07,0.0,0 STARLINK-3649,1 51980U 22025AA  24037.50857868  .00000082  00000-0  23209-4 0  9997,2 51980  53.2160 220.6858 0001177  92.4221 267.6906 15.08844139105992,6917.868,95.437,540.547,538.919,0.0
51980.0,STARLINK-3649,PAYLOAD,2024-02-06 18:33:53,15.08845973,0.0001194,53.2162,219.4971,88.3005,271.8123,3.0133e-05,1.92e-06,0.0,0 STARLINK-3649,1 51980U 22025AA  24037.77353645  .00000192  00000-0  30133-4 0  9996,2 51980  53.2162 219.4971 0001194  88.3005 271.8123 15.08845973107121,6917.862,95.437,540.553,538.901,0.0
51980.0,STARLINK-3649,PAYLOAD,2024-02-07 12:03:08,15.08838186,0.0001207,53.2163,216.227,83.1407,276.9723,4.6915e-05,4.59e-06,0.0,0 STARLINK-3649,1 51980U 22025AA  24038.50218078  .00000459  00000-0  46915-4 0  9999,2 51980  53.2163 216.2270 0001207  83.1407 276.9723 15.08838186107235,6917.886,95.438,540.586,538.916,0.0
51980.0,STARLINK-3649,PAYLOAD,2024-02-07 18:24:40,15.08839839,0.0001117,53.2159,215.0359,94.3277,265.7842,5.2118e-05,5.42e-06,0.0,0 STARLINK-3649,1 51980U 22025AA  24038.76713914  .00000542  00000-0  52118-4 0  9991,2 51980  53.2159 215.0359 0001117  94.3277 265.7842 15.08839839106181,6917.881,95.438,540.519,538.973,0.0
51980.0,STARLINK-3649,PAYLOAD,2024-02-08 11:53:56,15.08829802,0.0001258,53.2165,211.7674,97.7602,262.3533,-3.3167e-05,-8.16e-06,0.0,0 STARLINK-3649,1 51980U 22025AA  24039.49579125 -.00000816  00000-0 -33167-4 0  9995,2 51980  53.2165 211.7674 0001258  97.7602 262.3533 15.08829802107388,6917.912,95.438,540.647,538.906,0.0
51980.0,STARLINK-3649,PAYLOAD,2024-02-08 16:40:05,15.08829049,0.0001244,53.2168,210.8754,97.3667,262.7466,-4.2852e-05,-9.7e-06,0.0,0 STARLINK-3649,1 51980U 22025AA  24039.69451292 -.00000970  00000-0 -42852-4 0  9993,2 51980  53.2168 210.8754 0001244  97.3667 262.7466 15.08829049106327,6917.914,95.438,540.639,538.918,0.0
51980.0,STARLINK-3649,PAYLOAD,2024-02-09 11:44:42,15.08840639,0.0001192,53.2168,207.3024,99.0763,261.0364,5.7778e-05,6.32e-06,0.0,0 STARLINK-3649,1 51980U 22025AA  24040.48938487  .00000632  00000-0  57778-4 0  9994,2 51980  53.2168 207.3024 0001192  99.0763 261.0364 15.08840639107537,6917.878,95.438,540.568,538.919,0.0
51980.0,STARLINK-3649,PAYLOAD,2024-02-09 18:06:14,15.08848191,0.0001222,53.2171,206.1176,95.9258,264.1874,0.00016056,2.269e-05,0.0,0 STARLINK-3649,1 51980U 22025AA  24040.75433787  .00002269  00000-0  16056-3 0  9998,2 51980  53.2171 206.1176 0001222  95.9258 264.1874 15.08848191107579,6917.855,95.437,540.566,538.875,0.0
51980.0,STARLINK-3649,PAYLOAD,2024-02-10 19:32:25,15.08839805,0.0001294,53.2173,201.3585,85.5363,274.5777,0.00014504,2.021e-05,0.0,0 STARLINK-3649,1 51980U 22025AA  24041.81418654  .00002021  00000-0  14504-3 0  9994,2 51980  53.2173 201.3585 0001294  85.5363 274.5777 15.08839805107730,6917.881,95.438,540.641,538.851,0.0
51980.0,STARLINK-3649,PAYLOAD,2024-02-10 21:07:48,15.088405,0.0001296,53.2173,201.059,85.1657,274.9483,0.00014078,1.953e-05,0.0,0 STARLINK-3649,1 51980U 22025AA  24041.88042596  .00001953  00000-0  14078-3 0  9998,2 51980  53.2173 201.0590 0001296  85.1657 274.9483 15.08840500106659,6917.879,95.438,540.64,538.847,0.0
51980.0,STARLINK-3649,PAYLOAD,2024-02-11 14:37:03,15.08845846,0.0001332,53.218,197.7872,93.436,266.6785,-3.4106e-05,-8.31e-06,0.0,0 STARLINK-3649,1 51980U 22025AA  24042.60906654 -.00000831  00000-0 -34106-4 0  9994,2 51980  53.2180 197.7872 0001332  93.4360 266.6785 15.08845846106768,6917.863,95.437,540.649,538.806,0.0
51980.0,STARLINK-3649,PAYLOAD,2024-02-11 19:23:12,15.08850701,0.0001507,53.2179,196.8941,66.5363,293.5787,5.6228e-05,6.07e-06,0.0,0 STARLINK-3649,1 51980U 22025AA  24042.80778103  .00000607  00000-0  56228-4 0  9990,2 51980  53.2179 196.8941 0001507  66.5363 293.5787 15.08850701106791,6917.848,95.437,540.755,538.67,0.0
51980.0,STARLINK-3649,PAYLOAD,2024-02-12 09:41:41,15.08837653,0.0001148,53.2177,194.219,104.7906,255.3213,-8.6536e-06,-4.26e-06,0.0,0 STARLINK-3649,1 51980U 22025AA  24043.40394971 -.00000426  00000-0 -86536-5 0  9991,2 51980  53.2177 194.2190 0001148 104.7906 255.3213 15.08837653107978,6917.888,95.438,540.547,538.958,0.0
51980.0,STARLINK-3649,PAYLOAD,2024-02-12 14:27:50,15.08838391,0.0001236,53.2175,193.3312,83.6142,276.4991,-3.8139e-06,-3.49e-06,0.0,0 STARLINK-3649,1 51980U 22025AA  24043.60267003 -.00000349  00000-0 -38139-5 0  9998,2 51980  53.2175 193.3312 0001236  83.6142 276.4991 15.08838391106917,6917.885,95.438,540.605,538.895,0.0
51980.0,STARLINK-3649,PAYLOAD,2024-02-12 17:38:36,15.08845065,0.0001352,53.2171,192.7341,81.0084,279.1061,4.866e-05,4.87e-06,0.0,0 STARLINK-3649,1 51980U 22025AA  24043.73514410  .00000487  00000-0  48660-4 0  9999,2 51980  53.2171 192.7341 0001352  81.0084 279.1061 15.08845065108022,6917.865,95.437,540.665,538.795,0.0
51980.0,STARLINK-3649,PAYLOAD,2024-02-13 14:18:37,15.08839322,0.0001285,53.217,188.87,82.3681,277.7457,-4.9279e-05,-1.072e-05,0.0,0 STARLINK-3649,1 51980U 22025AA  24044.59627261 -.00001072  00000-0 -49279-4 0  9993,2 51980  53.2170 188.8700 0001285  82.3681 277.7457 15.08839322107063,6917.882,95.438,540.636,538.859,0.0
51980.0,STARLINK-3649,PAYLOAD,2024-02-13 19:04:46,15.08844738,0.0001362,53.2172,187.9732,92.6311,267.4837,1.9331e-06,-2.57e-06,0.0,0 STARLINK-3649,1 51980U 22025AA  24044.79498644 -.00000257  00000-0  19331-5 0  9996,2 51980  53.2172 187.9732 0001362  92.6311 267.4837 15.08844738108189,6917.866,95.437,540.673,538.789,0.0
51980.0,STARLINK-3649,PAYLOAD,2024-02-14 09:23:15,15.088385,0.0001415,53.216,185.2975,97.4035,262.7118,-3.6996e-05,-8.77e-06,0.0,0 STARLINK-3649,1 51980U 22025AA  24045.39115379 -.00000877  00000-0 -36996-4 0  9998,2 51980  53.2160 185.2975 0001415  97.4035 262.7118 15.08838500108271,6917.885,95.438,540.729,538.771,0.0
51980.0,STARLINK-3649,PAYLOAD,2024-02-14 14:09:23,15.0886264,0.0001085,53.2163,184.4084,72.535,287.5761,0.00024131,3.557e-05,0.0,0 STARLINK-3649,1 51980U 22025AA  24045.58985059  .00003557  00000-0  24131-3 0  9992,2 51980  53.2163 184.4084 0001085  72.5350 287.5761 15.08862640107217,6917.811,95.436,540.427,538.926,0.0
51980.0,STARLINK-3649,PAYLOAD,2024-02-14 15:44:46,15.08862157,0.0001232,53.2165,184.1116,90.3018,269.8116,0.00023078,3.389e-05,0.0,0 STARLINK-3649,1 51980U 22025AA  24045.65609016  .00003389  00000-0  23078-3 0  9998,2 51980  53.2165 184.1116 0001232  90.3018 269.8116 15.08862157108317,6917.813,95.436,540.53,538.825,0.0
51980.0,STARLINK-3649,PAYLOAD,2024-02-15 14:00:11,15.08838831,0.0001396,53.2153,179.9456,87.191,272.9242,6.1658e-05,6.93e-06,0.0,0 STARLINK-3649,1 51980U 22025AA  24046.58346980  .00000693  00000-0  61658-4 0  9991,2 51980  53.2153 179.9456 0001396  87.1910 272.9242 15.08838831107360,6917.884,95.438,540.715,538.783,0.0
51980.0,STARLINK-3649,PAYLOAD,2024-02-15 15:35:34,15.08840008,0.0001425,53.2161,179.6479,96.5139,263.6015,6.4065e-05,7.32e-06,0.0,0 STARLINK-3649,1 51980U 22025AA  24046.64970861  .00000732  00000-0  64065-4 0  9998,2 51980  53.2161 179.6479 0001425  96.5139 263.6015 15.08840008108467,6917.88,95.438,540.731,538.76,0.0
51980.0,STARLINK-3649,PAYLOAD,2024-02-16 12:15:36,15.08834741,0.0001463,53.217,175.7856,86.4837,273.6322,4.7261e-05,4.64e-06,0.0,0 STARLINK-3649,1 51980U 22025AA  24047.51083480  .00000464  00000-0  47261-4 0  9998,2 51980  53.2170 175.7856 0001463  86.4837 273.6322 15.08834741108591,6917.896,95.438,540.774,538.749,0.0
51980.0,STARLINK-3649,PAYLOAD,2024-02-16 15:26:22,15.08835829,0.0001277,53.2176,175.1932,81.5279,278.5858,0.00015238,2.138e-05,0.0,0 STARLINK-3649,1 51980U 22025AA  24047.64331059  .00002138  00000-0  15238-3 0  9998,2 51980  53.2176 175.1932 0001277  81.5279 278.5858 15.08835829107523,6917.893,95.438,540.642,538.875,0.0
51980.0,STARLINK-3649,PAYLOAD,2024-02-16 17:01:44,15.08848287,0.0001349,53.2176,174.895,94.9787,265.1359,0.00013753,1.902e-05,0.0,0 STARLINK-3649,1 51980U 22025AA  24047.70954324  .00001902  00000-0  13753-3 0  9999,2 51980  53.2176 174.8950 0001349  94.9787 265.1359 15.08848287108623,6917.855,95.437,540.653,538.787,0.0
51980.0,STARLINK-3649,PAYLOAD,2024-02-17 12:06:23,15.08832659,0.0001571,53.2181,171.3255,94.9268,265.1904,2.3615e-05,8.8e-07,0.0,0 STARLINK-3649,1 51980U 22025AA  24048.50443730  .00000088  00000-0  23615-4 0  9995,2 51980  53.2181 171.3255 0001571  94.9268 265.1904 15.08832659108745,6917.903,95.438,540.855,538.681,0.0
51980.0,STARLINK-3649,PAYLOAD,2024-02-17 15:17:09,15.08835698,0.000154,53.2179,170.7332,100.1423,259.9743,4.4495e-05,4.2e-06,0.0,0 STARLINK-3649,1 51980U 22025AA  24048.63691508  .00000420  00000-0  44495-4 0  9996,2 51980  53.2179 170.7332 0001540 100.1423 259.9743 15.08835698107679,6917.894,95.438,540.824,538.693,0.0
51980.0,STARLINK-3649,PAYLOAD,2024-02-17 16:52:32,15.08840167,0.0001603,53.2177,170.4343,96.1782,263.9393,7.9474e-05,9.77e-06,0.0,0 STARLINK-3649,1 51980U 22025AA  24048.70315149  .00000977  00000-0  79474-4 0  9990,2 51980  53.2177 170.4343 0001603  96.1782 263.9393 15.08840167108773,6917.88,95.438,540.854,538.636,0.0
51980.0,STARLINK-3649,PAYLOAD,2024-02-18 00:49:28,15.0883392,0.0001558,53.2172,168.9472,86.2052,273.9119,4.8738e-05,4.88e-06,0.0,0 STARLINK-3649,1 51980U 22025AA  24049.03435715  .00000488  00000-0  48738-4 0  9995,2 51980  53.2172 168.9472 0001558  86.2052 273.9119 15.08833920108824,6917.899,95.438,540.842,538.686,0.0
